      2.10          N: GNSS NAV DATA                        RINEX VERSION / TYPE
fic2rin                                 11/25/2022 00:17:38 PGM / RUN BY / DATE
                                                            END OF HEADER
29 22 11 24  1 59 44.0 -.569318886846D-03 -.250111042988D-11  .000000000000D+00
     .960000000000D+02  .317812500000D+02  .451911681078D-08  .166401060826D+01
     .161118805408D-05  .211054389365D-02 -.966712832451D-06  .515361772728D+04
     .352784000000D+06 -.223517417908D-07 -.162251963438D+01 -.521540641785D-07
     .978536784853D+00  .404531250000D+03  .247101298932D+01 -.850356849347D-08
     .357157734196D-10  .100000000000D+01  .223700000000D+04  .000000000000D+00
     .240000000000D+01  .000000000000D+00 -.102445483208D-07  .960000000000D+02
     .345600000000D+06  .400000000000D+01
26 22 11 24  1 59 44.0  .236668158323D-03  .102318153949D-11  .000000000000D+00
     .580000000000D+02  .136968750000D+03  .475984112363D-08 -.274407521567D+01
     .698491930962D-05  .751261366531D-02  .109374523163D-04  .515360405922D+04
     .352784000000D+06 -.596046447754D-07 -.280748400858D+01 -.104308128357D-06
     .936101422736D+00  .158156250000D+03  .398719621576D+00 -.799461872225D-08
     .957182727646D-10  .100000000000D+01  .223700000000D+04  .000000000000D+00
     .240000000000D+01  .000000000000D+00  .698491930962D-08  .580000000000D+02
     .345600000000D+06  .400000000000D+01
1  22 11 24  2  0  0.0  .247351825237D-03 -.545696821064D-11  .000000000000D+00
     .101000000000D+03 -.143250000000D+03  .385516058291D-08 -.489711313550D+00
    -.748224556446D-05  .120768257184D-01  .653415918350D-05  .515366167450D+04
     .352800000000D+06 -.558793544769D-07 -.635327734625D+00  .184401869774D-06
     .989150982589D+00  .267187500000D+03  .940769029641D+00 -.801676250177D-08
    -.375015620906D-09  .100000000000D+01  .223700000000D+04  .000000000000D+00
     .240000000000D+01  .000000000000D+00  .465661287308D-08  .101000000000D+03
     .345600000000D+06  .400000000000D+01
3  22 11 24  2  0  0.0 -.374044291675D-03 -.136424205266D-11  .000000000000D+00
     .300000000000D+02 -.303125000000D+02  .391194866265D-08 -.161388080761D+01
    -.162981450558D-05  .441836507525D-02  .121630728245D-04  .515377303696D+04
     .352800000000D+06  .113621354103D-06  .396313871812D+00 -.186264514923D-07
     .976589735980D+00  .155062500000D+03  .104977414102D+01 -.752102756670D-08
     .495377777330D-09  .100000000000D+01  .223700000000D+04  .000000000000D+00
     .240000000000D+01  .000000000000D+00  .186264514923D-08  .300000000000D+02
     .345600000000D+06  .400000000000D+01
2  22 11 24  2  0  0.0 -.636423937976D-03  .181898940355D-11  .000000000000D+00
     .700000000000D+02 -.164468750000D+03  .447375777854D-08 -.142705387745D+01
    -.825710594654D-05  .200050658314D-01  .557862222195D-05  .515369690895D+04
     .352800000000D+06 -.316649675369D-06 -.730346082280D+00  .407919287682D-06
     .966890594966D+00  .275468750000D+03 -.136113271292D+01 -.832713257278D-08
    -.427874965567D-09  .100000000000D+01  .223700000000D+04  .000000000000D+00
     .340000000000D+01  .000000000000D+00 -.176951289177D-07  .700000000000D+02
     .345600000000D+06  .400000000000D+01
5  22 11 24  2  0  0.0 -.105460640043D-03 -.147792889038D-11  .000000000000D+00
     .910000000000D+02 -.495625000000D+02  .419517474587D-08  .204145377166D+01
    -.266358256340D-05  .587010977324D-02  .125803053379D-04  .515357031441D+04
     .352800000000D+06 -.130385160446D-07  .352202100665D+00 -.800937414169D-07
     .963637923890D+00  .139687500000D+03  .114118048103D+01 -.764496130047D-08
     .563594904561D-09  .100000000000D+01  .223700000000D+04  .000000000000D+00
     .240000000000D+01  .000000000000D+00 -.111758708954D-07  .910000000000D+02
     .345600000000D+06  .400000000000D+01
8  22 11 24  2  0  0.0 -.952994450927D-04 -.181898940355D-11  .000000000000D+00
     .990000000000D+02  .490000000000D+02  .490520432145D-08  .177819710484D+01
     .268220901489D-05  .783385999966D-02 -.417232513428D-06  .515362468529D+04
     .352800000000D+06  .204890966415D-07 -.172243284887D+01  .227242708206D-06
     .960993955473D+00  .387000000000D+03  .168485243641D+00 -.865893210785D-08
     .675028117631D-10  .100000000000D+01  .223700000000D+04  .000000000000D+00
     .240000000000D+01  .000000000000D+00  .512227416039D-08  .990000000000D+02
     .345600000000D+06  .400000000000D+01
7  22 11 24  2  0  0.0  .283598899841D-03 -.488853402203D-11  .000000000000D+00
     .700000000000D+02 -.221875000000D+01  .471376777592D-08 -.110861131493D+01
     .707805156708D-07  .164790294366D-01  .946596264839D-05  .515361672020D+04
     .352800000000D+06  .314787030220D-06  .249443826204D+01  .346451997757D-06
     .950580072184D+00  .188781250000D+03 -.223635933044D+01 -.801283376669D-08
    -.641812448350D-09  .100000000000D+01  .223700000000D+04  .000000000000D+00
     .240000000000D+01  .000000000000D+00 -.111758708954D-07  .700000000000D+02
     .345600000000D+06  .400000000000D+01
6  22 11 24  2  0  0.0  .525376293808D-03  .875388650456D-11  .000000000000D+00
     .590000000000D+02 -.162250000000D+03  .379265797943D-08 -.207758776044D+00
    -.841915607452D-05  .265594117809D-02  .716559588909D-05  .515356607056D+04
     .352800000000D+06 -.111758708954D-07 -.643615376204D+00  .167638063431D-07
     .988425196745D+00  .256625000000D+03 -.916193922332D+00 -.787782814316D-08
    -.368586781690D-09  .100000000000D+01  .223700000000D+04  .000000000000D+00
     .240000000000D+01  .000000000000D+00  .372529029846D-08  .590000000000D+02
     .345600000000D+06  .400000000000D+01
4  22 11 24  2  0  0.0 -.810283236206D-04  .682121026330D-11  .000000000000D+00
     .151000000000D+03  .108125000000D+02  .497806449923D-08  .141217140117D+01
     .672414898872D-06  .217702612281D-02  .480003654957D-05  .515372235107D+04
     .352800000000D+06  .149011611938D-07  .147765529510D+01  .335276126862D-07
     .961465562226D+00  .287031250000D+03 -.312329044830D+01 -.821427072878D-08
     .125362364703D-09  .100000000000D+01  .223700000000D+04  .000000000000D+00
     .240000000000D+01  .000000000000D+00 -.465661287308D-08  .407000000000D+03
     .345600000000D+06  .400000000000D+01
24 22 11 24  2  0  0.0  .460096634924D-04 -.163709046319D-10  .000000000000D+00
     .600000000000D+01 -.124375000000D+02  .531593571577D-08 -.192175551763D+00
    -.575557351112D-06  .134767622221D-01  .881589949131D-05  .515366250038D+04
     .352800000000D+06  .614672899246D-07  .240695255857D+01  .165775418282D-06
     .934034783235D+00  .198125000000D+03  .862868028957D+00 -.845963809217D-08
    -.677885379504D-09  .100000000000D+01  .223700000000D+04  .000000000000D+00
     .240000000000D+01  .000000000000D+00  .279396772385D-08  .600000000000D+01
     .345600000000D+06  .400000000000D+01
21 22 11 24  2  0  0.0  .155395362526D-03 -.795807864051D-12  .000000000000D+00
     .160000000000D+02 -.149187500000D+03  .440339770490D-08  .173669238537D+01
    -.777281820774D-05  .245025340701D-01  .411458313465D-05  .515368705750D+04
     .352800000000D+06  .376254320145D-06 -.733881776802D+00  .104308128357D-06
     .961216242949D+00  .293281250000D+03 -.865805126659D+00 -.795068832094D-08
    -.570738059245D-09  .100000000000D+01  .223700000000D+04  .000000000000D+00
     .240000000000D+01  .000000000000D+00 -.102445483208D-07  .160000000000D+02
     .345600000000D+06  .400000000000D+01
12 22 11 24  2  0  0.0 -.307851005346D-03 -.454747350886D-11  .000000000000D+00
     .440000000000D+02  .176875000000D+03  .418553148704D-08 -.185245640650D+01
     .919029116631D-05  .864425709005D-02  .927224755287D-05  .515371496201D+04
     .352800000000D+06  .184401869774D-06 -.267516554795D+01  .596046447754D-07
     .967665628483D+00  .203875000000D+03  .131778648241D+01 -.779639617977D-08
     .233938315898D-09  .100000000000D+01  .223700000000D+04  .000000000000D+00
     .340000000000D+01  .000000000000D+00 -.125728547573D-07  .440000000000D+02
     .345600000000D+06  .400000000000D+01
15 22 11 24  2  0  0.0 -.985013321042D-05  .318323145621D-11  .000000000000D+00
     .250000000000D+02  .183750000000D+02  .572166690182D-08  .774970751042D+00
     .106915831566D-05  .147332472261D-01  .557862222195D-05  .515362928391D+04
     .352800000000D+06 -.193715095520D-06  .130884854888D+01 -.111758708954D-07
     .930808413964D+00  .260625000000D+03  .116275306748D+01 -.874072122898D-08
     .233938315898D-09  .100000000000D+01  .223700000000D+04  .000000000000D+00
     .240000000000D+01  .000000000000D+00 -.107102096081D-07  .250000000000D+02
     .345600000000D+06  .400000000000D+01
31 22 11 24  2  0  0.0 -.201145187020D-03 -.113686837722D-11  .000000000000D+00
     .520000000000D+02 -.158125000000D+02  .462019244956D-08 -.166262629716D+01
    -.107102096081D-05  .107424694579D-01  .962615013123D-05  .515361604881D+04
     .352800000000D+06  .335276126862D-07  .251365539531D+01 -.169500708580D-06
     .954744088558D+00  .185406250000D+03  .468763492601D+00 -.786139888739D-08
    -.551094383865D-09  .100000000000D+01  .223700000000D+04  .000000000000D+00
     .240000000000D+01  .000000000000D+00 -.135041773319D-07  .520000000000D+02
     .345600000000D+06  .400000000000D+01
20 22 11 24  2  0  0.0  .468059442937D-03 -.250111042988D-11  .000000000000D+00
     .260000000000D+02 -.606875000000D+02  .455697553061D-08  .538941798483D+00
    -.311248004436D-05  .474048638716D-02  .125393271446D-04  .515369494247D+04
     .352800000000D+06  .800937414169D-07  .233107784572D+00  .115483999252D-06
     .946123303959D+00  .131093750000D+03 -.302041147754D+01 -.792675875275D-08
     .471805366873D-09  .100000000000D+01  .223700000000D+04  .000000000000D+00
     .240000000000D+01  .000000000000D+00 -.838190317154D-08  .260000000000D+02
     .345600000000D+06  .400000000000D+01
